[{"OBJECT_NAME":"STARLINK-30876","OBJECT_ID":"2023-180C","EPOCH":"2026-03-09T22:00:01.999584","MEAN_MOTION":15.27561504,"ECCENTRICITY":0.00018441,"INCLINATION":43.0029,"RA_OF_ASC_NODE":51.5147,"ARG_OF_PERICENTER":264.9735,"MEAN_ANOMALY":247.5647,"EPHEMERIS_TYPE":0,"CLASSIFICATION_TYPE":"U","NORAD_CAT_ID":58404,"ELEMENT_SET_NO":999,"REV_AT_EPOCH":578,"BSTAR":0.0014677536,"MEAN_MOTION_DOT":0.00040326,"MEAN_MOTION_DDOT":0},{"OBJECT_NAME":"BLUEBON","OBJECT_ID":"2025-009CH","EPOCH":"2026-03-09T16:52:33.225312","MEAN_MOTION":15.29047254,"ECCENTRICITY":0.00011933,"INCLINATION":97.4017,"RA_OF_ASC_NODE":152.2033,"ARG_OF_PERICENTER":43.39,"MEAN_ANOMALY":316.7434,"EPHEMERIS_TYPE":0,"CLASSIFICATION_TYPE":"U","NORAD_CAT_ID":62688,"ELEMENT_SET_NO":999,"REV_AT_EPOCH":6376,"BSTAR":0.00037313027,"MEAN_MOTION_DOT":0.00010452,"MEAN_MOTION_DDOT":0}]
